DELTA 2 R/B(1)          
1 20453U 90008B   26040.29866851  .00075412  00000+0  99426-3 0  9999
2 20453  35.6056   0.6113 0094071 353.6638   6.2904 15.52034445921711
COSMOS 2058             
1 20465U 90010A   26041.16895193  .00004351  00000+0  25807-3 0  9999
2 20465  82.4644  74.5395 0011914  73.9291 286.3250 15.11064924938084
SL-14 R/B               
1 20466U 90010B   26041.10104310  .00000487  00000+0  56033-4 0  9990
2 20466  82.5026 293.3048 0020711  34.5569 325.6987 14.83544756924399
SL-14 R/B               
1 20511U 90018B   26041.09223529  .00000437  00000+0  51882-4 0  9993
2 20511  82.5181 248.8906 0016328 177.9033 182.2253 14.82115477918497
HST                     
1 20580U 90037B   26040.75045177  .00007715  00000+0  25800-3 0  9999
2 20580  28.4664 230.5298 0001744 153.1588 206.9098 15.29031698769036
SL-16 R/B               
1 20625U 90046B   26041.12740175  .00000259  00000+0  15846-3 0  9996
2 20625  71.0005 355.7965 0014790 338.1003  21.9486 14.15006902844496
COSMOS 2084             
1 20663U 90055A   26041.15821938  .00002703  00000+0  20033-3 0  9998
2 20663  62.7895  69.4649 0021490 184.1726 175.9199 15.05470760932177
SL-6 R/B(2)             
1 20666U 90055D   26041.10362845  .00002923  00000+0  22722-3 0  9994
2 20666  62.7847 347.6503 0020598 339.1974  20.8285 15.03449834934040
SL-8 R/B                
1 20775U 90078B   26041.15023914  .00014837  00000+0  43682-3 0  9991
2 20775  82.9019 276.0594 0366873 106.2701 257.9199 14.88150451805209
SL-8 R/B                
1 21088U 91006B   26040.88724775  .00000046  00000+0  30295-4 0  9997
2 21088  82.9435 190.7156 0023674 112.2700 359.0696 13.77492169760242
OKEAN-3                 
1 21397U 91039A   26040.94831538  .00003742  00000+0  26404-3 0  9991
2 21397  82.5176   3.7100 0016515  68.1095 292.1886 15.04581668860869
COSMOS 2151             
1 21422U 91042A   26041.13365042  .00002369  00000+0  18816-3 0  9990
2 21422  82.4963 110.2583 0013349 147.2484 212.9570 14.99999888859063
