CCSDS_OMM_VERS = 2.0
CREATION_DATE  = 
ORIGINATOR     = 

OBJECT_NAME    = DELTA 2 R/B(1)
OBJECT_ID      = 1990-008B
CENTER_NAME    = EARTH
REF_FRAME      = TEME
TIME_SYSTEM    = UTC
MEAN_ELEMENT_THEORY = SGP/SGP4

EPOCH          = 2026-02-09T07:10:04.959264
MEAN_MOTION    = 15.52034445
ECCENTRICITY   = .0094071
INCLINATION    = 35.6056
RA_OF_ASC_NODE = 0.6113
ARG_OF_PERICENTER = 353.6638
MEAN_ANOMALY   = 6.2904

EPHEMERIS_TYPE = 0
CLASSIFICATION_TYPE = U
NORAD_CAT_ID   = 20453
ELEMENT_SET_NO = 999
REV_AT_EPOCH   = 92171
BSTAR          = .99426E-3
MEAN_MOTION_DOT = .75412E-3
MEAN_MOTION_DDOT = 0

CCSDS_OMM_VERS = 2.0
CREATION_DATE  = 
ORIGINATOR     = 

OBJECT_NAME    = COSMOS 2058
OBJECT_ID      = 1990-010A
CENTER_NAME    = EARTH
REF_FRAME      = TEME
TIME_SYSTEM    = UTC
MEAN_ELEMENT_THEORY = SGP/SGP4

EPOCH          = 2026-02-10T04:03:17.446752
MEAN_MOTION    = 15.11064924
ECCENTRICITY   = .0011914
INCLINATION    = 82.4644
RA_OF_ASC_NODE = 74.5395
ARG_OF_PERICENTER = 73.9291
MEAN_ANOMALY   = 286.3250

EPHEMERIS_TYPE = 0
CLASSIFICATION_TYPE = U
NORAD_CAT_ID   = 20465
ELEMENT_SET_NO = 999
REV_AT_EPOCH   = 93808
BSTAR          = .25807E-3
MEAN_MOTION_DOT = .4351E-4
MEAN_MOTION_DDOT = 0

CCSDS_OMM_VERS = 2.0
CREATION_DATE  = 
ORIGINATOR     = 

OBJECT_NAME    = SL-14 R/B
OBJECT_ID      = 1990-010B
CENTER_NAME    = EARTH
REF_FRAME      = TEME
TIME_SYSTEM    = UTC
MEAN_ELEMENT_THEORY = SGP/SGP4

EPOCH          = 2026-02-10T02:25:30.123840
MEAN_MOTION    = 14.83544756
ECCENTRICITY   = .0020711
INCLINATION    = 82.5026
RA_OF_ASC_NODE = 293.3048
ARG_OF_PERICENTER = 34.5569
MEAN_ANOMALY   = 325.6987

EPHEMERIS_TYPE = 0
CLASSIFICATION_TYPE = U
NORAD_CAT_ID   = 20466
ELEMENT_SET_NO = 999
REV_AT_EPOCH   = 92439
BSTAR          = .56033E-4
MEAN_MOTION_DOT = .487E-5
MEAN_MOTION_DDOT = 0

CCSDS_OMM_VERS = 2.0
CREATION_DATE  = 
ORIGINATOR     = 

OBJECT_NAME    = SL-14 R/B
OBJECT_ID      = 1990-018B
CENTER_NAME    = EARTH
REF_FRAME      = TEME
TIME_SYSTEM    = UTC
MEAN_ELEMENT_THEORY = SGP/SGP4

EPOCH          = 2026-02-10T02:12:49.129056
MEAN_MOTION    = 14.82115477
ECCENTRICITY   = .0016328
INCLINATION    = 82.5181
RA_OF_ASC_NODE = 248.8906
ARG_OF_PERICENTER = 177.9033
MEAN_ANOMALY   = 182.2253

EPHEMERIS_TYPE = 0
CLASSIFICATION_TYPE = U
NORAD_CAT_ID   = 20511
ELEMENT_SET_NO = 999
REV_AT_EPOCH   = 91849
BSTAR          = .51882E-4
MEAN_MOTION_DOT = .437E-5
MEAN_MOTION_DDOT = 0

CCSDS_OMM_VERS = 2.0
CREATION_DATE  = 
ORIGINATOR     = 

OBJECT_NAME    = HST
OBJECT_ID      = 1990-037B
CENTER_NAME    = EARTH
REF_FRAME      = TEME
TIME_SYSTEM    = UTC
MEAN_ELEMENT_THEORY = SGP/SGP4

EPOCH          = 2026-02-09T18:00:39.032928
MEAN_MOTION    = 15.29031698
ECCENTRICITY   = .0001744
INCLINATION    = 28.4664
RA_OF_ASC_NODE = 230.5298
ARG_OF_PERICENTER = 153.1588
MEAN_ANOMALY   = 206.9098

EPHEMERIS_TYPE = 0
CLASSIFICATION_TYPE = U
NORAD_CAT_ID   = 20580
ELEMENT_SET_NO = 999
REV_AT_EPOCH   = 76903
BSTAR          = .258E-3
MEAN_MOTION_DOT = .7715E-4
MEAN_MOTION_DDOT = 0

CCSDS_OMM_VERS = 2.0
CREATION_DATE  = 
ORIGINATOR     = 

OBJECT_NAME    = SL-16 R/B
OBJECT_ID      = 1990-046B
CENTER_NAME    = EARTH
REF_FRAME      = TEME
TIME_SYSTEM    = UTC
MEAN_ELEMENT_THEORY = SGP/SGP4

EPOCH          = 2026-02-10T03:03:27.511200
MEAN_MOTION    = 14.15006902
ECCENTRICITY   = .001479
INCLINATION    = 71.0005
RA_OF_ASC_NODE = 355.7965
ARG_OF_PERICENTER = 338.1003
MEAN_ANOMALY   = 21.9486

EPHEMERIS_TYPE = 0
CLASSIFICATION_TYPE = U
NORAD_CAT_ID   = 20625
ELEMENT_SET_NO = 999
REV_AT_EPOCH   = 84449
BSTAR          = .15846E-3
MEAN_MOTION_DOT = .259E-5
MEAN_MOTION_DDOT = 0

CCSDS_OMM_VERS = 2.0
CREATION_DATE  = 
ORIGINATOR     = 

OBJECT_NAME    = COSMOS 2084
OBJECT_ID      = 1990-055A
CENTER_NAME    = EARTH
REF_FRAME      = TEME
TIME_SYSTEM    = UTC
MEAN_ELEMENT_THEORY = SGP/SGP4

EPOCH          = 2026-02-10T03:47:50.154432
MEAN_MOTION    = 15.05470760
ECCENTRICITY   = .002149
INCLINATION    = 62.7895
RA_OF_ASC_NODE = 69.4649
ARG_OF_PERICENTER = 184.1726
MEAN_ANOMALY   = 175.9199

EPHEMERIS_TYPE = 0
CLASSIFICATION_TYPE = U
NORAD_CAT_ID   = 20663
ELEMENT_SET_NO = 999
REV_AT_EPOCH   = 93217
BSTAR          = .20033E-3
MEAN_MOTION_DOT = .2703E-4
MEAN_MOTION_DDOT = 0

CCSDS_OMM_VERS = 2.0
CREATION_DATE  = 
ORIGINATOR     = 

OBJECT_NAME    = SL-6 R/B(2)
OBJECT_ID      = 1990-055D
CENTER_NAME    = EARTH
REF_FRAME      = TEME
TIME_SYSTEM    = UTC
MEAN_ELEMENT_THEORY = SGP/SGP4

EPOCH          = 2026-02-10T02:29:13.498080
MEAN_MOTION    = 15.03449834
ECCENTRICITY   = .0020598
INCLINATION    = 62.7847
RA_OF_ASC_NODE = 347.6503
ARG_OF_PERICENTER = 339.1974
MEAN_ANOMALY   = 20.8285

EPHEMERIS_TYPE = 0
CLASSIFICATION_TYPE = U
NORAD_CAT_ID   = 20666
ELEMENT_SET_NO = 999
REV_AT_EPOCH   = 93404
BSTAR          = .22722E-3
MEAN_MOTION_DOT = .2923E-4
MEAN_MOTION_DDOT = 0

CCSDS_OMM_VERS = 2.0
CREATION_DATE  = 
ORIGINATOR     = 

OBJECT_NAME    = SL-8 R/B
OBJECT_ID      = 1990-078B
CENTER_NAME    = EARTH
REF_FRAME      = TEME
TIME_SYSTEM    = UTC
MEAN_ELEMENT_THEORY = SGP/SGP4

EPOCH          = 2026-02-10T03:36:20.661696
MEAN_MOTION    = 14.88150451
ECCENTRICITY   = .0366873
INCLINATION    = 82.9019
RA_OF_ASC_NODE = 276.0594
ARG_OF_PERICENTER = 106.2701
MEAN_ANOMALY   = 257.9199

EPHEMERIS_TYPE = 0
CLASSIFICATION_TYPE = U
NORAD_CAT_ID   = 20775
ELEMENT_SET_NO = 999
REV_AT_EPOCH   = 80520
BSTAR          = .43682E-3
MEAN_MOTION_DOT = .14837E-3
MEAN_MOTION_DDOT = 0

CCSDS_OMM_VERS = 2.0
CREATION_DATE  = 
ORIGINATOR     = 

OBJECT_NAME    = SL-8 R/B
OBJECT_ID      = 1991-006B
CENTER_NAME    = EARTH
REF_FRAME      = TEME
TIME_SYSTEM    = UTC
MEAN_ELEMENT_THEORY = SGP/SGP4

EPOCH          = 2026-02-09T21:17:38.205600
MEAN_MOTION    = 13.77492169
ECCENTRICITY   = .0023674
INCLINATION    = 82.9435
RA_OF_ASC_NODE = 190.7156
ARG_OF_PERICENTER = 112.2700
MEAN_ANOMALY   = 359.0696

EPHEMERIS_TYPE = 0
CLASSIFICATION_TYPE = U
NORAD_CAT_ID   = 21088
ELEMENT_SET_NO = 999
REV_AT_EPOCH   = 76024
BSTAR          = .30295E-4
MEAN_MOTION_DOT = .46E-6
MEAN_MOTION_DDOT = 0

CCSDS_OMM_VERS = 2.0
CREATION_DATE  = 
ORIGINATOR     = 

OBJECT_NAME    = OKEAN-3
OBJECT_ID      = 1991-039A
CENTER_NAME    = EARTH
REF_FRAME      = TEME
TIME_SYSTEM    = UTC
MEAN_ELEMENT_THEORY = SGP/SGP4

EPOCH          = 2026-02-09T22:45:34.448832
MEAN_MOTION    = 15.04581668
ECCENTRICITY   = .0016515
INCLINATION    = 82.5176
RA_OF_ASC_NODE = 3.7100
ARG_OF_PERICENTER = 68.1095
MEAN_ANOMALY   = 292.1886

EPHEMERIS_TYPE = 0
CLASSIFICATION_TYPE = U
NORAD_CAT_ID   = 21397
ELEMENT_SET_NO = 999
REV_AT_EPOCH   = 86086
BSTAR          = .26404E-3
MEAN_MOTION_DOT = .3742E-4
MEAN_MOTION_DDOT = 0

CCSDS_OMM_VERS = 2.0
CREATION_DATE  = 
ORIGINATOR     = 

OBJECT_NAME    = COSMOS 2151
OBJECT_ID      = 1991-042A
CENTER_NAME    = EARTH
REF_FRAME      = TEME
TIME_SYSTEM    = UTC
MEAN_ELEMENT_THEORY = SGP/SGP4

EPOCH          = 2026-02-10T03:12:27.396288
MEAN_MOTION    = 14.99999888
ECCENTRICITY   = .0013349
INCLINATION    = 82.4963
RA_OF_ASC_NODE = 110.2583
ARG_OF_PERICENTER = 147.2484
MEAN_ANOMALY   = 212.9570

EPHEMERIS_TYPE = 0
CLASSIFICATION_TYPE = U
NORAD_CAT_ID   = 21422
ELEMENT_SET_NO = 999
REV_AT_EPOCH   = 85906
BSTAR          = .18816E-3
MEAN_MOTION_DOT = .2369E-4
MEAN_MOTION_DDOT = 0

